PHISAT 2                
1 60470U 24149C   26068.78834181  .00008925  00000+0  31421-3 0  9996
2 60470  97.3806 148.6498 0001175 168.6230 191.5037 15.29548631 86792
STARLINK-34242          
1 64727U 25144D   26068.59473647  .00027123  00000+0  92478-3 0  9996
2 64727  53.1578 181.7478 0000909  75.9215 284.1886 15.30191851 39698
